{
  "type": "FeatureCollection",
  "features": [
    {
      "type": "Feature",
      "properties": {
        "norad_id": 34299,
        "name": "COSMOS 2251 DEB",
        "group": "cosmos-2251-debris",
        "lat": 34.52346506467709,
        "lon": 130.174818227167,
        "alt_km": 309.48649601246416,
        "timestamp": "2025-12-18T08:58:43.808711+00:00",
        "meta_object_name": "COSMOS 2251 DEB",
        "meta_object_id": "1993-036MV",
        "meta_epoch": "2025-12-17T08:07:38.080416",
        "meta_mean_motion": 15.82960977,
        "meta_eccentricity": 0.00144906,
        "meta_inclination": 73.9725,
        "meta_ra_of_asc_node": 323.979,
        "meta_arg_of_pericenter": 70.2122,
        "meta_mean_anomaly": 290.0669,
        "meta_ephemeris_type": 0,
        "meta_classification_type": "U",
        "meta_norad_cat_id": 34299,
        "meta_element_set_no": 999,
        "meta_rev_at_epoch": 89083,
        "meta_bstar": 0.0059662188,
        "meta_mean_motion_dot": 0.01432796,
        "meta_mean_motion_ddot": 0,
        "tle_line1": "1 34299U 93036MV  25351.33863519  .01432796  00000+0  59662-2 0  9993",
        "tle_line2": "2 34299  73.9725 323.9790 0014490  70.2122 290.0669 15.82960977890831"
      },
      "geometry": {
        "type": "Point",
        "coordinates": [
          130.174818227167,
          34.52346506467709
        ]
      }
    },
    {
      "type": "Feature",
      "properties": {
        "norad_id": 34301,
        "name": "COSMOS 2251 DEB",
        "group": "cosmos-2251-debris",
        "lat": 72.86591880542302,
        "lon": -135.9878313476735,
        "alt_km": 612.0327712385961,
        "timestamp": "2025-12-18T08:58:43.808721+00:00",
        "meta_object_name": "COSMOS 2251 DEB",
        "meta_object_id": "1993-036MX",
        "meta_epoch": "2025-12-17T21:57:47.164608",
        "meta_mean_motion": 14.8479356,
        "meta_eccentricity": 0.00109064,
        "meta_inclination": 74.0041,
        "meta_ra_of_asc_node": 156.4133,
        "meta_arg_of_pericenter": 217.9886,
        "meta_mean_anomaly": 293.5184,
        "meta_ephemeris_type": 0,
        "meta_classification_type": "U",
        "meta_norad_cat_id": 34301,
        "meta_element_set_no": 999,
        "meta_rev_at_epoch": 88477,
        "meta_bstar": 0.002426637,
        "meta_mean_motion_dot": 0.00020647,
        "meta_mean_motion_ddot": 0,
        "tle_line1": "1 34301U 93036MX  25351.91512922  .00020647  00000+0  24266-2 0  9999",
        "tle_line2": "2 34301  74.0041 156.4133 0010906 217.9886 293.5184 14.84793560884772"
      },
      "geometry": {
        "type": "Point",
        "coordinates": [
          -135.9878313476735,
          72.86591880542302
        ]
      }
    },
    {
      "type": "Feature",
      "properties": {
        "norad_id": 34302,
        "name": "COSMOS 2251 DEB",
        "group": "cosmos-2251-debris",
        "lat": -25.445777015575278,
        "lon": 105.51612461617145,
        "alt_km": 709.8276754969984,
        "timestamp": "2025-12-18T08:58:43.808731+00:00",
        "meta_object_name": "COSMOS 2251 DEB",
        "meta_object_id": "1993-036MY",
        "meta_epoch": "2025-12-17T18:47:11.538816",
        "meta_mean_motion": 14.39350075,
        "meta_eccentricity": 0.00790758,
        "meta_inclination": 74.1784,
        "meta_ra_of_asc_node": 114.352,
        "meta_arg_of_pericenter": 328.1679,
        "meta_mean_anomaly": 182.4051,
        "meta_ephemeris_type": 0,
        "meta_classification_type": "U",
        "meta_norad_cat_id": 34302,
        "meta_element_set_no": 999,
        "meta_rev_at_epoch": 87793,
        "meta_bstar": 0.00046268347,
        "meta_mean_motion_dot": 1.465e-05,
        "meta_mean_motion_ddot": 0,
        "tle_line1": "1 34302U 93036MY  25351.78277244  .00001465  00000+0  46268-3 0  9994",
        "tle_line2": "2 34302  74.1784 114.3520 0079075 328.1679 182.4051 14.39350075877937"
      },
      "geometry": {
        "type": "Point",
        "coordinates": [
          105.51612461617145,
          -25.445777015575278
        ]
      }
    },
    {
      "type": "Feature",
      "properties": {
        "norad_id": 34303,
        "name": "COSMOS 2251 DEB",
        "group": "cosmos-2251-debris",
        "lat": 68.84713431786354,
        "lon": 49.519343962765596,
        "alt_km": 641.0872209520421,
        "timestamp": "2025-12-18T08:58:43.808741+00:00",
        "meta_object_name": "COSMOS 2251 DEB",
        "meta_object_id": "1993-036MZ",
        "meta_epoch": "2025-12-17T21:13:52.968576",
        "meta_mean_motion": 14.54519269,
        "meta_eccentricity": 0.01352651,
        "meta_inclination": 74.0058,
        "meta_ra_of_asc_node": 278.2879,
        "meta_arg_of_pericenter": 55.3393,
        "meta_mean_anomaly": 5.4841,
        "meta_ephemeris_type": 0,
        "meta_classification_type": "U",
        "meta_norad_cat_id": 34303,
        "meta_element_set_no": 999,
        "meta_rev_at_epoch": 88037,
        "meta_bstar": 0.0011410414,
        "meta_mean_motion_dot": 5.47e-05,
        "meta_mean_motion_ddot": 0,
        "tle_line1": "1 34303U 93036MZ  25351.88464084  .00005470  00000+0  11410-2 0  9996",
        "tle_line2": "2 34303  74.0058 278.2879 0135265  55.3393   5.4841 14.54519269880376"
      },
      "geometry": {
        "type": "Point",
        "coordinates": [
          49.519343962765596,
          68.84713431786354
        ]
      }
    },
    {
      "type": "Feature",
      "properties": {
        "norad_id": 34304,
        "name": "COSMOS 2251 DEB",
        "group": "cosmos-2251-debris",
        "lat": -54.2477536241375,
        "lon": -44.332618097736045,
        "alt_km": 681.6614676962772,
        "timestamp": "2025-12-18T08:58:43.808751+00:00",
        "meta_object_name": "COSMOS 2251 DEB",
        "meta_object_id": "1993-036NA",
        "meta_epoch": "2025-12-17T19:13:37.455744",
        "meta_mean_motion": 14.37907185,
        "meta_eccentricity": 0.01289769,
        "meta_inclination": 74.0131,
        "meta_ra_of_asc_node": 113.2585,
        "meta_arg_of_pericenter": 250.0158,
        "meta_mean_anomaly": 262.9189,
        "meta_ephemeris_type": 0,
        "meta_classification_type": "U",
        "meta_norad_cat_id": 34304,
        "meta_element_set_no": 999,
        "meta_rev_at_epoch": 87369,
        "meta_bstar": 0.0011979785,
        "meta_mean_motion_dot": 3.955e-05,
        "meta_mean_motion_ddot": 0,
        "tle_line1": "1 34304U 93036NA  25351.80112796  .00003955  00000+0  11980-2 0  9997",
        "tle_line2": "2 34304  74.0131 113.2585 0128976 250.0158 262.9189 14.37907185873696"
      },
      "geometry": {
        "type": "Point",
        "coordinates": [
          -44.332618097736045,
          -54.2477536241375
        ]
      }
    },
    {
      "type": "Feature",
      "properties": {
        "norad_id": 34307,
        "name": "COSMOS 2251 DEB",
        "group": "cosmos-2251-debris",
        "lat": -12.748047123730824,
        "lon": 127.78321281251091,
        "alt_km": 903.6694798757753,
        "timestamp": "2025-12-18T08:58:43.808761+00:00",
        "meta_object_name": "COSMOS 2251 DEB",
        "meta_object_id": "1993-036ND",
        "meta_epoch": "2025-12-17T07:58:06.173760",
        "meta_mean_motion": 13.54327375,
        "meta_eccentricity": 0.03919151,
        "meta_inclination": 74.0535,
        "meta_ra_of_asc_node": 305.7461,
        "meta_arg_of_pericenter": 135.6743,
        "meta_mean_anomaly": 14.7195,
        "meta_ephemeris_type": 0,
        "meta_classification_type": "U",
        "meta_norad_cat_id": 34307,
        "meta_element_set_no": 999,
        "meta_rev_at_epoch": 82924,
        "meta_bstar": 0.00057277697,
        "meta_mean_motion_dot": 6.18e-06,
        "meta_mean_motion_ddot": 0,
        "tle_line1": "1 34307U 93036ND  25351.33201590  .00000618  00000+0  57278-3 0  9993",
        "tle_line2": "2 34307  74.0535 305.7461 0391915 135.6743  14.7195 13.54327375829248"
      },
      "geometry": {
        "type": "Point",
        "coordinates": [
          127.78321281251091,
          -12.748047123730824
        ]
      }
    },
    {
      "type": "Feature",
      "properties": {
        "norad_id": 34313,
        "name": "COSMOS 2251 DEB",
        "group": "cosmos-2251-debris",
        "lat": 73.53939925427741,
        "lon": 10.282721692765184,
        "alt_km": 490.63295628706237,
        "timestamp": "2025-12-18T08:58:43.808771+00:00",
        "meta_object_name": "COSMOS 2251 DEB",
        "meta_object_id": "1993-036NK",
        "meta_epoch": "2025-12-17T19:57:52.222752",
        "meta_mean_motion": 15.19953262,
        "meta_eccentricity": 0.00115802,
        "meta_inclination": 73.9723,
        "meta_ra_of_asc_node": 294.7837,
        "meta_arg_of_pericenter": 72.7548,
        "meta_mean_anomaly": 287.4915,
        "meta_ephemeris_type": 0,
        "meta_classification_type": "U",
        "meta_norad_cat_id": 34313,
        "meta_element_set_no": 999,
        "meta_rev_at_epoch": 89142,
        "meta_bstar": 0.0034128881,
        "meta_mean_motion_dot": 0.00074282,
        "meta_mean_motion_ddot": 0,
        "tle_line1": "1 34313U 93036NK  25351.83185443  .00074282  00000+0  34129-2 0  9990",
        "tle_line2": "2 34313  73.9723 294.7837 0011580  72.7548 287.4915 15.19953262891428"
      },
      "geometry": {
        "type": "Point",
        "coordinates": [
          10.282721692765184,
          73.53939925427741
        ]
      }
    }
  ]
}